start=new Date('2021-09-23T00:00:00.000Z').valueOf();
sats=[{"PERIOD":"95.592","MEAN_ANOMALY":"256.5589","EPHEMERIS_TYPE":"0","RCS_SIZE":"LARGE","APOAPSIS":"547.925","SEMIMAJOR_AXIS":"6925.349","ELEMENT_SET_NO":"999","GP_ID":"185267658","ECCENTRICITY":"0.00010270","LAUNCH_DATE":"2021-03-11","BSTAR":"0.00012770000000","CLASSIFICATION_TYPE":"U","EPOCH":"2021-09-22T14:45:47.393568","PERIAPSIS":"546.502","MEAN_MOTION":"15.06399986","DECAY_DATE":null,"COUNTRY_CODE":"US","RA_OF_ASC_NODE":"354.8128","FILE":"3123736","OBJECT_ID":"2021-018AS","TLE_LINE2":"2 47827  53.0587 354.8128 0001027 103.5515 256.5589 15.06399986 31256","NORAD_CAT_ID":"47827","TIME_SYSTEM":"UTC","MEAN_MOTION_DDOT":"0.0000000000000","OBJECT_TYPE":"PAYLOAD","MEAN_MOTION_DOT":"0.00001621","REV_AT_EPOCH":"3125","CENTER_NAME":"EARTH","OBJECT_NAME":"STARLINK-2413","MEAN_ELEMENT_THEORY":"SGP4","REF_FRAME":"TEME","SITE":"AFETR","TLE_LINE1":"1 47827U 21018AS  21265.61513187  .00001621  00000-0  12770-3 0  9998","INCLINATION":"53.0587","ARG_OF_PERICENTER":"103.5515"},{"NORAD_CAT_ID":"47828","TLE_LINE2":"2 47828  53.0572  14.4036 0001313 100.3567 259.7571 15.06395136 30931","OBJECT_ID":"2021-018AT","OBJECT_TYPE":"PAYLOAD","MEAN_MOTION_DDOT":"0.0000000000000","TIME_SYSTEM":"UTC","MEAN_ELEMENT_THEORY":"SGP4","OBJECT_NAME":"STARLINK-2415","CENTER_NAME":"EARTH","REV_AT_EPOCH":"3093","MEAN_MOTION_DOT":"-0.00000539","ARG_OF_PERICENTER":"100.3567","INCLINATION":"53.0572","TLE_LINE1":"1 47828U 21018AT  21265.70638427 -.00000539  00000-0 -17265-4 0  9998","REF_FRAME":"TEME","SITE":"AFETR","APOAPSIS":"548.138","RCS_SIZE":"LARGE","EPHEMERIS_TYPE":"0","MEAN_ANOMALY":"259.7571","PERIOD":"95.592","ECCENTRICITY":"0.00013130","GP_ID":"185268407","ELEMENT_SET_NO":"999","SEMIMAJOR_AXIS":"6925.363","COUNTRY_CODE":"US","DECAY_DATE":null,"MEAN_MOTION":"15.06395136","PERIAPSIS":"546.319","EPOCH":"2021-09-22T16:57:11.600928","CLASSIFICATION_TYPE":"U","BSTAR":"-0.00001726500000","LAUNCH_DATE":"2021-03-11","FILE":"3123736","RA_OF_ASC_NODE":"14.4036"},{"PERIAPSIS":"546.314","EPOCH":"2021-09-22T14:12:36.985536","MEAN_MOTION":"15.06405526","DECAY_DATE":null,"COUNTRY_CODE":"US","LAUNCH_DATE":"2021-03-11","CLASSIFICATION_TYPE":"U","BSTAR":"0.00012071000000","FILE":"3123736","RA_OF_ASC_NODE":"14.9202","RCS_SIZE":"LARGE","APOAPSIS":"548.079","PERIOD":"95.592","EPHEMERIS_TYPE":"0","MEAN_ANOMALY":"254.1460","ELEMENT_SET_NO":"999","GP_ID":"185268659","ECCENTRICITY":"0.00012740","SEMIMAJOR_AXIS":"6925.332","MEAN_ELEMENT_THEORY":"SGP4","OBJECT_NAME":"STARLINK-2416","CENTER_NAME":"EARTH","REV_AT_EPOCH":"3090","MEAN_MOTION_DOT":"0.00001517","ARG_OF_PERICENTER":"105.9670","INCLINATION":"53.0569","TLE_LINE1":"1 47829U 21018AU  21265.59209474  .00001517  00000-0  12071-3 0  9996","REF_FRAME":"TEME","SITE":"AFETR","NORAD_CAT_ID":"47829","TLE_LINE2":"2 47829  53.0569  14.9202 0001274 105.9670 254.1460 15.06405526 30908","OBJECT_ID":"2021-018AU","OBJECT_TYPE":"PAYLOAD","TIME_SYSTEM":"UTC","MEAN_MOTION_DDOT":"0.0000000000000"},{"FILE":"3123623","RA_OF_ASC_NODE":"14.9330","LAUNCH_DATE":"2021-03-11","CLASSIFICATION_TYPE":"U","BSTAR":"0.00009074200000","PERIAPSIS":"546.303","EPOCH":"2021-09-22T14:07:19.958016","DECAY_DATE":null,"COUNTRY_CODE":"US","MEAN_MOTION":"15.06397991","SEMIMAJOR_AXIS":"6925.355","ELEMENT_SET_NO":"999","ECCENTRICITY":"0.00013240","GP_ID":"185244477","PERIOD":"95.592","EPHEMERIS_TYPE":"0","MEAN_ANOMALY":"262.6802","RCS_SIZE":"LARGE","APOAPSIS":"548.137","TLE_LINE1":"1 47830U 21018AV  21265.58842544  .00001070  00000-0  90742-4 0  9994","SITE":"AFETR","REF_FRAME":"TEME","ARG_OF_PERICENTER":"97.4338","INCLINATION":"53.0580","CENTER_NAME":"EARTH","REV_AT_EPOCH":"3057","MEAN_MOTION_DOT":"0.00001070","MEAN_ELEMENT_THEORY":"SGP4","OBJECT_NAME":"STARLINK-2419","TIME_SYSTEM":"UTC","MEAN_MOTION_DDOT":"0.0000000000000","OBJECT_TYPE":"PAYLOAD","OBJECT_ID":"2021-018AV","NORAD_CAT_ID":"47830","TLE_LINE2":"2 47830  53.0580  14.9330 0001324  97.4338 262.6802 15.06397991 30570"},{"PERIAPSIS":"546.568","EPOCH":"2021-09-22T15:52:47.126784","COUNTRY_CODE":"US","DECAY_DATE":null,"MEAN_MOTION":"15.06401042","LAUNCH_DATE":"2021-03-11","CLASSIFICATION_TYPE":"U","BSTAR":"0.00011845000000","RA_OF_ASC_NODE":"349.6057","FILE":"3123736","RCS_SIZE":"LARGE","APOAPSIS":"547.853","PERIOD":"95.592","EPHEMERIS_TYPE":"0","MEAN_ANOMALY":"241.7353","ELEMENT_SET_NO":"999","GP_ID":"185268158","ECCENTRICITY":"0.00009280","SEMIMAJOR_AXIS":"6925.345","MEAN_ELEMENT_THEORY":"SGP4","OBJECT_NAME":"STARLINK-2420","CENTER_NAME":"EARTH","REV_AT_EPOCH":"3132","MEAN_MOTION_DOT":"0.00001484","ARG_OF_PERICENTER":"118.3729","INCLINATION":"53.0535","TLE_LINE1":"1 47831U 21018AW  21265.66165656  .00001484  00000-0  11845-3 0  9991","SITE":"AFETR","REF_FRAME":"TEME","NORAD_CAT_ID":"47831","TLE_LINE2":"2 47831  53.0535 349.6057 0000928 118.3729 241.7353 15.06401042 31327","OBJECT_ID":"2021-018AW","OBJECT_TYPE":"PAYLOAD","TIME_SYSTEM":"UTC","MEAN_MOTION_DDOT":"0.0000000000000"},{"OBJECT_TYPE":"PAYLOAD","MEAN_MOTION_DDOT":"0.0000000000000","TIME_SYSTEM":"UTC","NORAD_CAT_ID":"47832","TLE_LINE2":"2 47832  53.0571   4.5334 0001514 101.3942 258.7217 15.06391518 31068","OBJECT_ID":"2021-018AX","ARG_OF_PERICENTER":"101.3942","INCLINATION":"53.0571","TLE_LINE1":"1 47832U 21018AX  21265.67782797  .00000102  00000-0  25760-4 0  9992","REF_FRAME":"TEME","SITE":"AFETR","MEAN_ELEMENT_THEORY":"SGP4","OBJECT_NAME":"STARLINK-2422","CENTER_NAME":"EARTH","MEAN_MOTION_DOT":"0.00000102","REV_AT_EPOCH":"3106","GP_ID":"185267908","ECCENTRICITY":"0.00015140","ELEMENT_SET_NO":"999","SEMIMAJOR_AXIS":"6925.375","APOAPSIS":"548.288","RCS_SIZE":"LARGE","EPHEMERIS_TYPE":"0","MEAN_ANOMALY":"258.7217","PERIOD":"95.593","RA_OF_ASC_NODE":"4.5334","FILE":"3123736","COUNTRY_CODE":"US","DECAY_DATE":null,"MEAN_MOTION":"15.06391518","PERIAPSIS":"546.191","EPOCH":"2021-09-22T16:16:04.336608","CLASSIFICATION_TYPE":"U","BSTAR":"0.00002576000000","LAUNCH_DATE":"2021-03-11"},{"ARG_OF_PERICENTER":"94.7128","INCLINATION":"53.0573","TLE_LINE1":"1 47833U 21018AY  21265.57093167 -.00000034  00000-0  16632-4 0  9991","SITE":"AFETR","REF_FRAME":"TEME","MEAN_ELEMENT_THEORY":"SGP4","OBJECT_NAME":"STARLINK-2423","CENTER_NAME":"EARTH","REV_AT_EPOCH":"3071","MEAN_MOTION_DOT":"-0.00000034","OBJECT_TYPE":"PAYLOAD","TIME_SYSTEM":"UTC","MEAN_MOTION_DDOT":"0.0000000000000","TLE_LINE2":"2 47833  53.0573   5.0127 0001417  94.7128 265.4023 15.06396210 30715","NORAD_CAT_ID":"47833","OBJECT_ID":"2021-018AY","FILE":"3123599","RA_OF_ASC_NODE":"5.0127","PERIAPSIS":"546.244","EPOCH":"2021-09-22T13:42:08.496288","COUNTRY_CODE":"US","DECAY_DATE":null,"MEAN_MOTION":"15.06396210","LAUNCH_DATE":"2021-03-11","CLASSIFICATION_TYPE":"U","BSTAR":"0.00001663200000","ELEMENT_SET_NO":"999","GP_ID":"185243984","ECCENTRICITY":"0.00014170","SEMIMAJOR_AXIS":"6925.360","APOAPSIS":"548.206","RCS_SIZE":"LARGE","PERIOD":"95.592","EPHEMERIS_TYPE":"0","MEAN_ANOMALY":"265.4023"},{"REF_FRAME":"TEME","SITE":"AFETR","TLE_LINE1":"1 47834U 21018AZ  21265.64834235  .00001471  00000-0  11765-3 0  9995","INCLINATION":"53.0571","ARG_OF_PERICENTER":"97.7905","MEAN_MOTION_DOT":"0.00001471","REV_AT_EPOCH":"3111","CENTER_NAME":"EARTH","OBJECT_NAME":"STARLINK-2424","MEAN_ELEMENT_THEORY":"SGP4","MEAN_MOTION_DDOT":"0.0000000000000","TIME_SYSTEM":"UTC","OBJECT_TYPE":"PAYLOAD","OBJECT_ID":"2021-018AZ","TLE_LINE2":"2 47834  53.0571   4.6632 0001295  97.7905 262.3231 15.06386412 31115","NORAD_CAT_ID":"47834","RA_OF_ASC_NODE":"4.6632","FILE":"3123736","BSTAR":"0.00011765000000","CLASSIFICATION_TYPE":"U","LAUNCH_DATE":"2021-03-11","COUNTRY_CODE":"US","DECAY_DATE":null,"MEAN_MOTION":"15.06386412","EPOCH":"2021-09-22T15:33:36.779040","PERIAPSIS":"546.358","SEMIMAJOR_AXIS":"6925.390","GP_ID":"185269387","ECCENTRICITY":"0.00012950","ELEMENT_SET_NO":"999","MEAN_ANOMALY":"262.3231","EPHEMERIS_TYPE":"0","PERIOD":"95.593","APOAPSIS":"548.152","RCS_SIZE":"LARGE"},{"ECCENTRICITY":"0.00011720","GP_ID":"185267659","ELEMENT_SET_NO":"999","SEMIMAJOR_AXIS":"6925.352","APOAPSIS":"548.029","RCS_SIZE":"LARGE","MEAN_ANOMALY":"264.6937","EPHEMERIS_TYPE":"0","PERIOD":"95.592","RA_OF_ASC_NODE":"9.9237","FILE":"3123736","DECAY_DATE":null,"MEAN_MOTION":"15.06398800","COUNTRY_CODE":"US","EPOCH":"2021-09-22T14:19:54.196320","PERIAPSIS":"546.406","BSTAR":"0.00004645700000","CLASSIFICATION_TYPE":"U","LAUNCH_DATE":"2021-03-11","OBJECT_TYPE":"PAYLOAD","MEAN_MOTION_DDOT":"0.0000000000000","TIME_SYSTEM":"UTC","TLE_LINE2":"2 47835  53.0567   9.9237 0001172  95.4185 264.6937 15.06398800 30974","NORAD_CAT_ID":"47835","OBJECT_ID":"2021-018BA","INCLINATION":"53.0567","ARG_OF_PERICENTER":"95.4185","REF_FRAME":"TEME","SITE":"AFETR","TLE_LINE1":"1 47835U 21018BA  21265.59715505  .00000411  00000-0  46457-4 0  9998","OBJECT_NAME":"STARLINK-2425","MEAN_ELEMENT_THEORY":"SGP4","REV_AT_EPOCH":"3097","MEAN_MOTION_DOT":"0.00000411","CENTER_NAME":"EARTH"},{"SEMIMAJOR_AXIS":"6925.330","GP_ID":"185268408","ECCENTRICITY":"0.00011970","ELEMENT_SET_NO":"999","MEAN_ANOMALY":"266.3917","EPHEMERIS_TYPE":"0","PERIOD":"95.592","RCS_SIZE":"LARGE","APOAPSIS":"548.024","RA_OF_ASC_NODE":"4.6100","FILE":"3123736","BSTAR":"0.00003916100000","CLASSIFICATION_TYPE":"U","LAUNCH_DATE":"2021-03-11","COUNTRY_CODE":"US","DECAY_DATE":null,"MEAN_MOTION":"15.06405985","EPOCH":"2021-09-22T15:48:09.535680","PERIAPSIS":"546.366","MEAN_MOTION_DDOT":"0.0000000000000","TIME_SYSTEM":"UTC","OBJECT_TYPE":"PAYLOAD","OBJECT_ID":"2021-018BB","TLE_LINE2":"2 47836  53.0559   4.6100 0001197  93.7209 266.3917 15.06405985 31063","NORAD_CAT_ID":"47836","REF_FRAME":"TEME","SITE":"AFETR","TLE_LINE1":"1 47836U 21018BB  21265.65844370  .00000302  00000-0  39161-4 0  9992","INCLINATION":"53.0559","ARG_OF_PERICENTER":"93.7209","REV_AT_EPOCH":"3106","MEAN_MOTION_DOT":"0.00000302","CENTER_NAME":"EARTH","OBJECT_NAME":"STARLINK-2426","MEAN_ELEMENT_THEORY":"SGP4"}];
